*******************************************************************************
 Revised: September 11, 2020           Jupiter                              599
 
 PHYSICAL DATA (updated 2018-Aug-15):
  Mass x10^24 (kg)      = 1898.13+-.19    Density (g/cm^3)       =   1.326
  Equat. radius (1 bar) = 71492+-4 km     Polar radius (km)      =  66854+-10
  Vol. Mean Radius (km) = 69911+-6        Flattening             =   0.06487
  Geometric Albedo      = 0.52            Rocky core mass (Mc/M) =  0.0261
  Sid. rot. period (III)= 9h 55m 29.71 s  Sid. rot. rate (rad/s) =  0.00017585 
  Mean solar day, hrs   = ~9.9259         
  GM (km^3/s^2)         = 126686532.190   GM 1-sigma (km^3/s^2)  =  +-1.5
  Equ. grav, ge (m/s^2) = 24.79           Pol. grav, gp (m/s^2)  =  28.34
  Vis. magnitude V(1,0) = -9.40
  Vis. mag. (opposition)= -2.70           Obliquity to orbit     =  3.13 deg
  Sidereal orbit period = 11.861982204 y  Sidereal orbit period  = 4332.589 d
  Mean daily motion     = 0.0831294 deg/d Mean orbit speed, km/s = 13.0697
  Atmos. temp. (1 bar)  = 165+-5 K        Escape speed, km/s    =  59.5           
  A_roche(ice)/Rp       =  2.76           Hill's sphere rad. Rp  = 740
                                 Perihelion   Aphelion     Mean
  Solar Constant (W/m^2)         56           46           51
  Maximum Planetary IR (W/m^2)   13.7         13.4         13.6
  Minimum Planetary IR (W/m^2)   13.7         13.4         13.6
*******************************************************************************
 
 
*******************************************************************************
Ephemeris / WWW_USER Fri Oct 16 04:05:18 2020 Pasadena, USA      / Horizons
*******************************************************************************
Target body name: Jupiter (599)                   {source: jup357_merged}
Center body name: Sun (10)                        {source: jup357_merged}
Center-site name: BODY CENTER
*******************************************************************************
Start time      : A.D. 2020-Sep-01 00:00:00.0000 TDB
Stop  time      : A.D. 2020-Oct-01 00:00:00.0000 TDB
Step-size       : 1440 minutes
*******************************************************************************
Center geodetic : 0.00000000,0.00000000,0.0000000 {E-lon(deg),Lat(deg),Alt(km)}
Center cylindric: 0.00000000,0.00000000,0.0000000 {E-lon(deg),Dxy(km),Dz(km)}
Center radii    : 696000.0 x 696000.0 x 696000.0 k{Equator, meridian, pole}    
Output units    : AU-D
Output type     : GEOMETRIC cartesian states
Output format   : 3 (position, velocity, LT, range, range-rate)
Reference frame : Ecliptic of J2000.0
*******************************************************************************
JDTDB
   X     Y     Z
   VX    VY    VZ
   LT    RG    RR
*******************************************************************************
$$SOE
2459117.500000000 = A.D. 2020-Sep-25 00:00:00.0000 TDB 
 X = 2.426100639571927E+00 Y =-4.519704827087617E+00 Z =-3.550815566337213E-02
 VX= 6.565028448627956E-03 VY= 3.928617443433740E-03 VZ=-1.632088962394088E-04
 LT= 2.962731519908176E-02 RG= 5.129810607268950E+00 RR=-3.553691154537810E-04
2459118.500000000 = A.D. 2020-Sep-26 00:00:00.0000 TDB 
 X = 2.432662850521923E+00 Y =-4.515771312673132E+00 Z =-3.567132891374165E-02
 VX= 6.559905361829167E-03 VY= 3.938183780011895E-03 VZ=-1.631382197273095E-04
 LT= 2.962526303756553E-02 RG= 5.129455286517033E+00 RR=-3.548290807487528E-04
2459119.500000000 = A.D. 2020-Sep-27 00:00:00.0000 TDB 
 X = 2.439220481848712E+00 Y =-4.511827414044329E+00 Z =-3.583439433233546E-02
 VX= 6.554534041296181E-03 VY= 3.949626026292873E-03 VZ=-1.630049323705398E-04
 LT= 2.962321133670667E-02 RG= 5.129100045525469E+00 RR=-3.560539078810495E-04
2459120.500000000 = A.D. 2020-Sep-28 00:00:00.0000 TDB 
 X = 2.445771938292064E+00 Y =-4.507873308423997E+00 Z =-3.599738382888337E-02
 VX= 6.549094472257698E-03 VY= 3.958716498092209E-03 VZ=-1.629579359687533E-04
 LT= 2.962115664070977E-02 RG= 5.128744285941829E+00 RR=-3.552399564004444E-04
2459121.500000000 = A.D. 2020-Sep-29 00:00:00.0000 TDB 
 X = 2.452318274381763E+00 Y =-4.503909096883485E+00 Z =-3.616028245986035E-02
 VX= 6.543055555370963E-03 VY= 3.969283509893583E-03 VZ=-1.628621165847835E-04
 LT= 2.961910237300235E-02 RG= 5.128388600514215E+00 RR=-3.560081736526773E-04
2459122.500000000 = A.D. 2020-Sep-30 00:00:00.0000 TDB 
 X = 2.458858812123682E+00 Y =-4.499935342759017E+00 Z =-3.632311881922772E-02
 VX= 6.538272831768842E-03 VY= 3.978826756405537E-03 VZ=-1.627855018432721E-04
 LT= 2.961704953436566E-02 RG= 5.128033162522525E+00 RR=-3.552747107000239E-04
2459123.500000000 = A.D. 2020-Oct-01 00:00:00.0000 TDB 
 X = 2.465393798681229E+00 Y =-4.495951342812229E+00 Z =-3.648586622703523E-02
 VX= 6.531736846904587E-03 VY= 3.988383276580372E-03 VZ=-1.627376119088302E-04
 LT= 2.961499524910920E-02 RG= 5.127677474056386E+00 RR=-3.553920888154632E-04
